INTELSAT 35E (IS-35E)   
1 42818U 17041A   26169.46027269  .00000000  00000+0  00000+0 0  9994
2 42818   0.0196  10.0898 0002003  78.7192 309.0921  1.00271137 32827
COSMOS 2520             
1 42907U 17046A   26169.47604609  .00000131  00000+0  00000+0 0  9993
2 42907   0.0475  93.6563 0001267   6.2150  23.1999  1.00271321 32412
TDRS 13                 
1 42915U 17047A   26169.60744243 -.00000107  00000+0  00000+0 0  9991
2 42915   3.4521   2.7874 0014529 106.3561   4.9416  1.00271663 32363
QZS-3 (MICHIBIKI-3)     
1 42917U 17048A   26169.56358889 -.00000354  00000+0  00000+0 0  9990
2 42917   0.0677 167.8045 0001908 275.0114 153.8622  1.00275425 32271
AMAZONAS 5              
1 42934U 17053A   26169.52633323 -.00000289  00000+0  00000+0 0  9997
2 42934   0.0314 327.6735 0002010  65.7866   1.7797  1.00272137 32050
ASIASAT 9               
1 42942U 17057A   26169.63391808  .00000000  00000+0  00000+0 0  9991
2 42942   0.0418  50.7631 0002465  30.3881 176.0940  1.00266518 31873
INTELSAT 37E (IS-37E)   
1 42950U 17059A   26169.60605576  .00000000  00000+0  00000+0 0  9999
2 42950   0.0207  14.8074 0002590  97.8054 354.4310  1.00269170 32083
BSAT-4A                 
1 42951U 17059B   26169.58641659 -.00000357  00000+0  00000+0 0  9995
2 42951   0.0343 348.5034 0004055  78.7987 160.4634  1.00273940 31813
QZS-4 (MICHIBIKI-4)     
1 42965U 17062A   26169.35012920 -.00000360  00000+0  00000+0 0  9996
2 42965  40.1070 343.4662 0745018 271.8091 274.2172  1.00250086 31811
SES-11 (ECHOSTAR 105)   
1 42967U 17063A   26169.51766652 -.00000095  00000+0  00000+0 0  9990
2 42967   0.0152 351.9974 0002744  80.6492 275.5157  1.00270833 31732
KOREASAT 5A             
1 42984U 17067A   26169.56081554 -.00000364  00000+0  00000+0 0  9998
2 42984   0.0200 303.8202 0000653 129.0585 148.9569  1.00270277 31544
ALCOMSAT 1              
1 43039U 17078A   26169.46217935 -.00000193  00000+0  00000+0 0  9995
2 43039   0.0288 266.2693 0002297 168.8948 333.1005  1.00269166 31300
SBIRS GEO-3 (USA 282)   
1 43162U 18009A   26169.57814896  .00000121  00000+0  00000+0 0  9998
2 43162   2.1853  12.1896 0001896  65.5761 237.7794  1.00271944 30851
AL YAH 3                
1 43174U 18012A   26169.60570909 -.00000163  00000+0  00000+0 0  9990
2 43174   1.5565  83.0917 0003947   2.0468  19.6294  1.00269803 30861
SES-14                  
1 43175U 18012B   26169.52901991 -.00000285  00000+0  00000+0 0  9996
2 43175   0.0195  29.8723 0000855  72.0057 307.8305  1.00275741  7030
GOES 17                 
1 43226U 18022A   26169.59201569 -.00000189  00000+0  00000+0 0  9998
2 43226   0.9417  85.6823 0000491  29.5169 275.2338  1.00269560 30437
HISPASAT 30W-6          
1 43228U 18023A   26169.46122602 -.00000223  00000+0  00000+0 0  9996
2 43228   0.0456  42.9949 0005737  27.2662 332.4701  1.00269727 30412
SUPERBIRD-B3            
1 43271U 18033A   26169.57052226 -.00000098  00000+0  00000+0 0  9991
2 43271   0.0102  25.5404 0000983  57.4847 191.1763  1.00271724 30079
HYLAS 4                 
1 43272U 18033B   26169.46053269 -.00000239  00000+0  00000+0 0  9995
2 43272   0.0174  20.9775 0001294  86.0301 291.9719  1.00280023 30070
IRNSS-1I                
1 43286U 18035A   26166.83981681  .00000062  00000+0  00000+0 0  9991
2 43286  28.7520  74.2167 0017811 181.5598   5.5147  1.00272046 30064
USA 283                 
1 43339U 18036A   26166.49948147  .00000000  00000+0  00000+0 0  9995
2 43339   0.0182   1.8047 0000468 172.3670  43.5385  1.00267801 25278
COSMOS 2526             
1 43432U 18037A   26169.58948706 -.00000351  00000+0  00000+0 0  9994
2 43432   0.0289  34.2955 0000563 200.0654  12.7395  1.00269106 29975
APSTAR-6C               
1 43450U 18041A   26168.85207074 -.00000324  00000+0  00000+0 0  9994
2 43450   0.0269  17.8003 0000917 325.0673   3.9650  1.00268661 29810
BANGABANDHUSAT-1        
1 43463U 18044A   26169.62340762 -.00000369  00000+0  00000+0 0  9998
2 43463   0.0311  85.9566 0001694 359.0021 165.4112  1.00269128 29725
SES-12                  
1 43488U 18049A   26169.64260877 -.00000276  00000+0  00000+0 0  9997
2 43488   0.0149  21.9698 0000743 268.3300 302.9157  1.00270741 29431
FENGYUN 2H              
1 43491U 18050A   26169.62542471 -.00000137  00000+0  00000+0 0  9990
2 43491   3.0356  79.0525 0001967 138.2508 354.1055  1.00269447 29454
BEIDOU-2 IGSO-7         
1 43539U 18057A   26168.91820174 -.00000040  00000+0  00000+0 0  9993
2 43539  55.1940 163.0508 0105157 238.0681 305.4943  1.00251228 29134
TELSTAR 19V             
1 43562U 18059A   26169.45463932 -.00000286  00000+0  00000+0 0  9998
2 43562   0.0192 170.6171 0002570 297.8062 258.9346  1.00274890 29150
TELKOM 4 (MERAH PUTIH)  
1 43587U 18064A   26169.61894984  .00000000  00000+0  00000+0 0  9997
2 43587   0.0163   0.3574 0001447 120.9053 116.4107  1.00267104 28892
TELSTAR 18V             
1 43611U 18069A   26169.63164486 -.00000300  00000+0  00000+0 0  9993
2 43611   0.0183 295.6693 0001758 147.3455 189.2363  1.00270826 28658
AZERSPACE 2 (IS-38)     
1 43632U 18074A   26169.47604609  .00000130  00000+0  00000+0 0  9990
2 43632   0.0177  12.1555 0001290  76.3170  34.7186  1.00271426 28462
HORIZONS-3E             
1 43633U 18074B   26169.57190892 -.00000037  00000+0  00000+0 0  9993
2 43633   0.0085 101.9714 0000776 173.2693   6.4569  1.00271511 28354
